[{"OBJECT_NAME":"OBJECT D","OBJECT_ID":"2024-085D","EPOCH":"2026-03-09T22:53:13.410816","MEAN_MOTION":15.33413141,"ECCENTRICITY":0.00152451,"INCLINATION":97.3312,"RA_OF_ASC_NODE":145.3953,"ARG_OF_PERICENTER":54.9672,"MEAN_ANOMALY":305.2998,"EPHEMERIS_TYPE":0,"CLASSIFICATION_TYPE":"U","NORAD_CAT_ID":59680,"ELEMENT_SET_NO":999,"REV_AT_EPOCH":10244,"BSTAR":0.00049264705,"MEAN_MOTION_DOT":0.00015903,"MEAN_MOTION_DDOT":0},{"OBJECT_NAME":"STARLINK-33881","OBJECT_ID":"2025-091E","EPOCH":"2026-03-09T23:46:02.215488","MEAN_MOTION":15.27586979,"ECCENTRICITY":0.00034596,"INCLINATION":43.008,"RA_OF_ASC_NODE":51.2276,"ARG_OF_PERICENTER":294.3484,"MEAN_ANOMALY":65.7007,"EPHEMERIS_TYPE":0,"CLASSIFICATION_TYPE":"U","NORAD_CAT_ID":63779,"ELEMENT_SET_NO":999,"REV_AT_EPOCH":4894,"BSTAR":0.0010132175,"MEAN_MOTION_DOT":0.00027733,"MEAN_MOTION_DDOT":0}]
